GEESAT-4 A              
1 65119U 25170A   25248.14255343  .00004530  00000+0  53088-3 0  9993
2 65119  49.9865  57.3300 0014413  37.8499 322.3451 14.86559999  4094
GEESAT-4 B              
1 65120U 25170B   25248.26813679  .00004339  00000+0  51223-3 0  9996
2 65120  49.9839  56.6485 0008576  72.0813 288.1060 14.86373835  4130
GEESAT-4 C              
1 65121U 25170C   25248.30550553  .00005069  00000+0  59229-3 0  9996
2 65121  49.9915  56.1612 0020738  45.0313 315.2304 14.86393183  4111
GEESAT-4 D              
1 65122U 25170D   25248.29784729  .00004543  00000+0  53497-3 0  9996
2 65122  49.9817  56.0960 0010236  57.3925 302.8001 14.86377482  4115
GEESAT-4 E              
1 65123U 25170E   25248.27556588  .00004319  00000+0  50867-3 0  9994
2 65123  49.9914  56.7012 0020740  33.3907 326.8336 14.86388418  4101
GEESAT-4 F              
1 65124U 25170F   25248.32774124  .00004294  00000+0  50637-3 0  9996
2 65124  49.9829  56.2778 0017841  26.3771 333.8073 14.86384846  4118
GEESAT-4 G              
1 65125U 25170G   25248.31290247  .00004436  00000+0  52161-3 0  9997
2 65125  49.9915  56.2065 0017874  46.7222 313.5206 14.86428333  4110
GEESAT-4 H              
1 65126U 25170H   25244.72721941  .00005837  00000+0  65000-3 0  9991
2 65126  49.9791  72.6369 0007545  83.7706 276.4094 14.88233916  3589
GEESAT-4 J              
1 65127U 25170J   25247.95446781  .00003744  00000+0  47396-3 0  9999
2 65127  49.9886  57.6290 0017455  40.9478 319.2768 14.83734131  4061
GEESAT-4 K              
1 65128U 25170K   25248.32040230  .00004410  00000+0  51638-3 0  9996
2 65128  49.9924  56.2487 0032398  52.9713 307.4183 14.86380960  4112
GEESAT-4 L              
1 65129U 25170L   25245.26014628  .00006833  00000+0  71929-3 0  9995
2 65129  49.9958  70.1086 0015670  49.3425 310.8876 14.90235029  3660
KUIPER-00081            
1 65132U 25171A   25246.23025492  .00064523  00000+0  18004-2 0  9993
2 65132  51.8759 295.1419 0005020 200.8955 159.1827 15.36124698  4744
KUIPER-00088            
1 65133U 25171B   25247.40195148  .00036699  00000+0  10301-2 0  9995
2 65133  51.8763 289.4964 0004506 204.4634 155.6139 15.36196541  4926
KUIPER-00095            
1 65134U 25171C   25248.25722068  .00036969  00000+0  10586-2 0  9992
2 65134  51.8747 285.4731 0004396 243.4853 116.5682 15.35568260  5054
KUIPER-00096            
1 65135U 25171D   25247.40751247  .00020041  00000+0  57619-3 0  9993
2 65135  51.8753 289.5262 0004184 224.8567 135.2081 15.35784800  4922
KUIPER-00097            
1 65136U 25171E   25248.25825222  .00055376  00000+0  15790-2 0  9995
2 65136  51.8753 285.4791 0004274 246.7851 113.2685 15.35517561  5042
KUIPER-00098            
1 65137U 25171F   25247.40127533  .00042255  00000+0  11846-2 0  9992
2 65137  51.8761 289.4899 0004919 203.8977 156.1781 15.36167607  4263
KUIPER-00099            
1 65138U 25171G   25248.11932098  .00044672  00000+0  12558-2 0  9998
2 65138  51.8755 286.0547 0005015 220.2215 139.8401 15.36055755  5028
KUIPER-00100            
1 65139U 25171H   25247.40646879  .00018165  00000+0  52375-3 0  9999
2 65139  51.8754 289.5195 0004449 222.2914 137.7730 15.35763873  4918
KUIPER-00102            
1 65140U 25171J   25247.41111980  .00044526  00000+0  12730-2 0  9992
2 65140  51.8751 289.5487 0004100 233.0817 126.9793 15.35534026  4912
KUIPER-00103            
1 65141U 25171K   25247.40832877  .00019586  00000+0  56489-3 0  9995
2 65141  51.8753 289.5308 0003814 223.7968 136.2716 15.35702825  4914
KUIPER-00104            
1 65142U 25171L   25247.40732976  .00041935  00000+0  11914-2 0  9991
2 65142  51.8765 289.5330 0003928 223.6584 136.4092 15.35758585  4915
KUIPER-00105            
1 65143U 25171M   25247.39981334  .00040197  00000+0  11219-2 0  9991
2 65143  51.8761 289.4801 0005189 201.2086 158.8686 15.36327807  4922
KUIPER-00106            
1 65144U 25171N   25247.40494876  .00044989  00000+0  12673-2 0  9992
2 65144  51.8754 289.5094 0004508 212.4045 147.6665 15.35991875  4927
KUIPER-00107            
1 65145U 25171P   25247.47092083  .00045861  00000+0  12960-2 0  9993
2 65145  51.8767 289.2099 0004728 219.7618 140.3022 15.35880221  4934
KUIPER-00108            
1 65146U 25171Q   25248.25771084  .00065762  00000+0  18519-2 0  9994
2 65146  51.8760 285.4814 0009992 271.6504  88.3337 15.35792646  5057
KUIPER-00109            
1 65147U 25171R   25248.11886516  .00041453  00000+0  11662-2 0  9990
2 65147  51.8753 286.0464 0004767 218.6819 141.3826 15.36066737  5029
KUIPER-00110            
1 65148U 25171S   25248.11999002  .00045628  00000+0  12813-2 0  9993
2 65148  51.8754 286.0603 0004365 214.1483 145.9223 15.36081343  5029
KUIPER-00111            
1 65149U 25171T   25247.40852119  .00020851  00000+0  59955-3 0  9992
2 65149  51.8766 289.5408 0003934 229.8599 130.2043 15.35755015  4913
KUIPER-00112            
1 65150U 25171U   25248.25893925  .00030017  00000+0  86621-3 0  9993
2 65150  51.8759 285.4869 0004753 253.9267 106.1196 15.35428517  5043
KUIPER-00114            
1 65151U 25171V   25248.25003472 -.00503667  00000+0 -16814-1 0  9997
2 65151  51.8770 285.5298 0004561 224.5837  79.0044 15.32622235  4261
KUIPER-00115            
1 65152U 25171W   25248.12028376  .00049147  00000+0  13823-2 0  9998
2 65152  51.8742 286.0552 0004551 209.9203 150.1523 15.35997985  5021
KUIPER-00116            
1 65153U 25171X   25247.47405622  .00037788  00000+0  10815-2 0  9995
2 65153  51.8764 289.2296 0004276 232.7724 127.2873 15.35574355  4925
KUIPER-00118            
1 65154U 25171Y   25247.41145710  .00019992  00000+0  57952-3 0  9990
2 65154  51.8762 289.5568 0003824 235.7198 124.3426 15.35529765  4911
KUIPER-00119            
1 65155U 25171Z   25248.11688255  .00079176  00000+0  21830-2 0  9990
2 65155  51.8764 286.0364 0006078 207.5144 152.5521 15.36397019  5020
METOP-SGA1              
1 65159U 25172A   25248.21824359  .00000106  00000+0  66426-4 0  9992
2 65159  98.7052 307.3722 0006625 315.2877  44.7766 14.23131211  3292
HULIANWANG DIGUI 8A     
1 65164U 25174A   25248.32794043  .00000119  00000+0  20768-3 0  9990
2 65164  86.5086 348.2291 0001993 193.7492 166.3594 13.34838375  3083
HULIANWANG DIGUI 8B     
1 65165U 25174B   25247.80920073  .00000016  00000+0  20155-5 0  9995
2 65165  86.5003 348.3927 0001104  77.0864 283.0398 13.33167987  3016
HULIANWANG DIGUI 8C     
1 65166U 25174C   25247.88788617  .00000155  00000+0  28780-3 0  9994
2 65166  86.5031 348.3798 0002103  69.9212 290.2153 13.32787989  3020
HULIANWANG DIGUI 8D     
1 65167U 25174D   25248.26844766  .00000107  00000+0  18886-3 0  9999
2 65167  86.4982 348.2467 0004566 126.1595 233.9966 13.32662048  3071
HULIANWANG DIGUI 8E     
1 65168U 25174E   25248.19743297  .00000024  00000+0  19435-4 0  9999
2 65168  86.4986 348.2684 0001590  84.7348 275.3972 13.32038405  3066
HULIANWANG DIGUI 8F     
1 65169U 25174F   25248.27882910  .00000040  00000+0  53007-4 0  9996
2 65169  86.5041 348.2569 0001702  88.0854 272.0479 13.31413274  3073
HULIANWANG DIGUI 8G     
1 65170U 25174G   25247.90770553  .00000046  00000+0  65386-4 0  9995
2 65170  86.4980 348.3832 0003081  46.0526 314.0865 13.30865561  3022
HULIANWANG DIGUI 8H     
1 65171U 25174H   25248.21861699 -.00000016  00000+0 -65580-4 0  9998
2 65171  86.4956 348.2720 0001504  92.4448 267.6861 13.29793598  3068
HULIANWANG DIGUI 8J     
1 65172U 25174J   25248.21377985  .00000117  00000+0  21978-3 0  9991
2 65172  86.5021 348.2854 0001100  42.5582 317.5640 13.30027281  3069
HULIANWANG DIGUI 8K     
1 65173U 25174K   25248.22413517 -.00001664  00000+0 -36444-2 0  9998
2 65173  86.5006 348.2867 0001828  61.5846 298.5475 13.29122875  3032
STARLINK-34956          
1 65174U 25175A   25248.12791853  .00105480  00000+0  19108-2 0  9998
2 65174  97.6026 119.0476 0001852 116.5118 243.6322 15.49253855  4645
STARLINK-34949          
1 65175U 25175B   25248.12757623  .00091329  00000+0  16586-2 0  9999
2 65175  97.6026 119.0480 0001557  83.3190 276.8237 15.49238144  4685
STARLINK-34707          
1 65176U 25175C   25248.12724602  .00102536  00000+0  18565-2 0  9993
2 65176  97.6027 119.0483 0001310 123.5787 236.5589 15.49279923  4678
STARLINK-34967          
1 65177U 25175D   25248.12688763  .00101663  00000+0  18433-2 0  9995
2 65177  97.6027 119.0500 0001928 102.9265 257.2201 15.49242815  4677
STARLINK-34929          
1 65178U 25175E   25248.12653931  .00063690  00000+0  11613-2 0  9995
2 65178  97.6027 119.0509 0001977 137.2631 222.8774 15.49236864  4679
STARLINK-34932          
1 65179U 25175F   25248.25503764  .00031689  00000+0  58144-3 0  9992
2 65179  97.6028 119.1871 0001864  89.2984 270.8480 15.49217985  4698
STARLINK-34862          
1 65180U 25175G   25248.25469219  .00060574  00000+0  11056-2 0  9995
2 65180  97.6028 119.1885 0001850  87.4085 272.7377 15.49220559  4699
STARLINK-34942          
1 65181U 25175H   25248.12619605  .00090422  00000+0  16421-2 0  9994
2 65181  97.6027 119.0508 0001693  94.7442 265.4002 15.49241979  4641
STARLINK-34944          
1 65182U 25175J   25248.18975806  .00092439  00000+0  16791-2 0  9999
2 65182  97.6028 119.1204 0001737  88.4929 271.6520 15.49227655  4689
STARLINK-34939          
1 65183U 25175K   25248.18941314  .00089361  00000+0  16240-2 0  9996
2 65183  97.6029 119.1208 0001683  81.3230 278.8210 15.49225624  4658
STARLINK-34947          
1 65184U 25175L   25248.18906908  .00097729  00000+0  17740-2 0  9990
2 65184  97.6028 119.1214 0002062  85.5885 274.5601 15.49225892  4686
STARLINK-34945          
1 65185U 25175M   25248.18872523  .00100484  00000+0  18232-2 0  9996
2 65185  97.6028 119.1214 0002188  81.0716 279.0782 15.49227133  4680
STARLINK-34965          
1 65186U 25175N   25248.18803589  .00100986  00000+0  18320-2 0  9998
2 65186  97.6029 119.1217 0002145  85.7053 274.4442 15.49229958  4682
